OBJECT_NAME,OBJECT_ID,EPOCH,MEAN_MOTION,ECCENTRICITY,INCLINATION,RA_OF_ASC_NODE,ARG_OF_PERICENTER,MEAN_ANOMALY,EPHEMERIS_TYPE,CLASSIFICATION_TYPE,NORAD_CAT_ID,ELEMENT_SET_NO,REV_AT_EPOCH,BSTAR,MEAN_MOTION_DOT,MEAN_MOTION_DDOT
LEMUR-2-ROUNDTRIPPER,2025-009DG,2026-06-17T18:13:11.534592,15.03800777,.0005425,97.7255,251.4375,128.9810,231.1899,0,U,62711,999,7771,.51363E-3,.7002E-4,0
LEMUR-2-MYNAMEISJEFF,2025-009DH,2026-06-17T19:46:42.860352,15.03807850,.000365,97.7302,251.8838,149.6084,210.5353,0,U,62712,999,7772,.50289E-3,.6854E-4,0
LEMUR-2-LEIA-PHILIP,2025-052AN,2026-06-17T16:06:26.531424,14.97320431,.0002607,97.6839,60.6142,208.3934,151.7147,0,U,63246,999,6874,.60623E-4,.646E-5,0
LEMUR-2-LIA-MARTIN,2025-052AQ,2026-06-17T16:13:30.036576,14.97806659,.0002934,97.6892,61.0949,156.2328,203.9030,0,U,63248,999,6875,.24556E-3,.2827E-4,0
LEMUR-2-DELOITTE-1,2025-052BB,2026-06-17T15:39:35.911008,14.97607944,.0003429,97.6921,61.3999,96.1635,263.9978,0,U,63259,999,6876,.3293E-3,.3792E-4,0
LEMUR-2-EMERSONROSE,2025-052BD,2026-06-17T15:03:11.179008,14.99081964,.0001749,97.6883,61.9349,68.0009,292.1400,0,U,63261,999,6880,.24365E-3,.29E-4,0
LEMUR-2-MARACHE-FRAN,2025-052BE,2026-06-17T16:03:16.708032,15.00106027,.0005326,97.6940,62.2936,21.1467,338.9976,0,U,63262,999,6883,.33499E-3,.4119E-4,0
LEMUR-2-THEFALCONER,2025-052BG,2026-06-17T16:17:40.364160,14.97391344,.0002594,97.6859,61.0465,32.1109,328.0270,0,U,63264,999,6876,.20799E-3,.236E-4,0
LEMUR-2-UNTITLED-SC,2025-061A,2026-06-17T16:24:34.607232,15.13479120,.001696,97.5636,144.0418,262.6299,97.3004,0,U,63351,999,6766,.19854E-3,.3496E-4,0
LEMUR-2-ESPERANZA,2025-061B,2026-06-17T11:06:00.491616,15.13572861,.00164908,97.5644,143.9159,262.7680,97.1676,0,U,63352,999,6763,.17515946E-3,.3084E-4,0
LEMUR-2-KREMPEL-BRO2,2025-061C,2026-06-17T19:40:36.062976,15.14010108,.0017534,97.5690,144.8046,253.1570,106.7738,0,U,63353,999,6770,.19889E-3,.3557E-4,0
LEMUR-2-THERMORAPTOR,2025-061D,2026-06-17T14:29:13.797024,15.14089419,.0017203,97.5697,144.6655,252.6757,107.2592,0,U,63354,999,6767,.19376E-3,.347E-4,0
LEMUR-2-NEUROSPICY,2025-061E,2026-06-17T15:23:33.211104,15.14203989,.0015033,97.5624,144.3288,256.4261,103.5296,0,U,63355,999,6768,.16347E-3,.2924E-4,0
LEMUR-2-TILLINFINITY,2025-061F,2026-06-17T11:28:42.693024,15.14789899,.00163864,97.5607,144.4573,243.8467,116.1080,0,U,63356,999,6768,.20824704E-3,.3809E-4,0
LEMUR-2-KREMPEL-BRO1,2025-061G,2026-06-17T10:50:33.716832,15.14594749,.00169763,97.5610,144.3472,245.4775,114.4687,0,U,63357,999,6767,.15695404E-3,.2839E-4,0
LEMUR-2-LANGER2SPACE,2025-061H,2026-06-17T11:28:48.452448,15.14291464,.00149621,97.5614,144.1874,255.2164,104.7410,0,U,63358,999,6766,.20298273E-3,.3657E-4,0
LEMUR-2-BALTO,2025-052BH,2026-06-17T15:41:14.273952,15.00091659,.0006906,97.6897,62.2564,56.5220,303.6663,0,U,63395,999,6883,.40031E-3,.4934E-4,0
LEMUR-2-KRISH,2025-135AK,2026-06-16T20:58:09.569568,14.96207333,.0001766,97.7754,282.7517,99.8626,260.2794,0,U,64561,999,5387,.42604658E-3,.4747E-4,0
LEMUR-2-HUBBLE-4,2025-135AP,2026-06-17T01:39:53.438400,14.93197861,.00009647,97.7699,281.9767,308.5326,51.5807,0,U,64565,999,5385,.14733269E-3,.1482E-4,0
LEMUR-2-SEJONG-2,2025-135BL,2026-06-17T20:09:16.022592,14.96700381,.0003786,97.7688,283.8559,336.0281,24.0763,0,U,64586,999,5404,.29459E-3,.3306E-4,0
LEMUR-2-HUBBLE-5,2025-135BT,2026-06-17T18:14:39.032736,14.94137180,.0005046,97.7720,283.2940,351.9269,8.1869,0,U,64840,999,5399,.89282E-4,.898E-5,0
LEMUR-2-KARENDARRELL,2025-135BU,2026-06-17T18:50:42.192384,15.00117904,.0009722,97.7683,284.9918,199.7619,160.3229,0,U,64841,999,5410,.52138E-3,.6451E-4,0
LEMUR-2-LUCILLE-ROSE,2025-135BV,2026-06-17T07:00:28.186560,15.00154719,.00112696,97.7770,284.5194,282.5666,77.4297,0,U,65403,999,4865,.38974509E-3,.4812E-4,0
LEMUR-2-AFFIE-WAUWIE,2025-248C,2026-06-16T03:21:25.708032,15.27115158,.00075209,45.3895,120.6606,77.2231,282.9498,0,U,66295,999,3443,.50637182E-3,.13448E-3,0
LEMUR-2-DEANANDMAEVE,2025-276N,2026-06-17T18:36:49.852800,15.19739114,.0005656,97.4209,242.2414,12.7375,347.4002,0,U,66678,999,3050,.24251E-3,.5118E-4,0
LEMUR-2-STAS-GORBUK,2025-276W,2026-06-17T18:57:54.824832,15.19387089,.0005024,97.4244,242.3109,13.5720,346.5649,0,U,66686,999,3050,.21197E-3,.4418E-4,0
LEMUR-2-TEODOR,2025-276DG,2026-06-17T18:33:36.620064,15.21055353,.0002149,97.4151,242.5312,116.3493,243.7963,0,U,66768,999,3053,.20733E-3,.4536E-4,0
LEMUR-2-LAILA,2025-276DQ,2026-06-17T17:55:55.613280,15.21277167,.000226,97.4173,242.6265,135.0689,225.0730,0,U,66776,999,3053,.2292E-3,.5055E-4,0
LEMUR-2-CELIJO-SB-PK,2025-276DW,2026-06-17T18:29:20.138208,14.99982019,.000873,97.5250,239.5293,131.4945,228.7030,0,U,66781,999,2271,.40074E-3,.4928E-4,0
LEMUR-2-FINNIAN,2025-276DX,2026-06-17T17:55:57.914112,15.00384360,.0008876,97.5287,239.7207,87.8049,272.4191,0,U,66782,999,2008,.45074E-3,.561E-4,0
