LEMUR-2-ROUNDTRIPPER    
1 62711U 25009DG  26168.75916128  .00007002  00000+0  51363-3 0  9994
2 62711  97.7255 251.4375 0005425 128.9810 231.1899 15.03800777 77719
LEMUR-2-MYNAMEISJEFF    
1 62712U 25009DH  26168.82410718  .00006854  00000+0  50289-3 0  9997
2 62712  97.7302 251.8838 0003650 149.6084 210.5353 15.03807850 77728
LEMUR-2-LEIA-PHILIP     
1 63246U 25052AN  26168.67114041  .00000646  00000+0  60623-4 0  9998
2 63246  97.6839  60.6142 0002607 208.3934 151.7147 14.97320431 68743
LEMUR-2-LIA-MARTIN      
1 63248U 25052AQ  26168.67604209  .00002827  00000+0  24556-3 0  9997
2 63248  97.6892  61.0949 0002934 156.2328 203.9030 14.97806659 68758
LEMUR-2-DELOITTE-1      
1 63259U 25052BB  26168.65249897  .00003792  00000+0  32930-3 0  9992
2 63259  97.6921  61.3999 0003429  96.1635 263.9978 14.97607944 68768
LEMUR-2-EMERSONROSE     
1 63261U 25052BD  26168.62721272  .00002900  00000+0  24365-3 0  9997
2 63261  97.6883  61.9349 0001749  68.0009 292.1400 14.99081964 68808
LEMUR-2-MARACHE-FRAN    
1 63262U 25052BE  26168.66894338  .00004119  00000+0  33499-3 0  9998
2 63262  97.6940  62.2936 0005326  21.1467 338.9976 15.00106027 68833
LEMUR-2-THEFALCONER     
1 63264U 25052BG  26168.67893940  .00002360  00000+0  20799-3 0  9994
2 63264  97.6859  61.0465 0002594  32.1109 328.0270 14.97391344 68769
LEMUR-2-UNTITLED-SC     
1 63351U 25061A   26168.68373388  .00003496  00000+0  19854-3 0  9992
2 63351  97.5636 144.0418 0016960 262.6299  97.3004 15.13479120 67667
LEMUR-2-ESPERANZA       
1 63352U 25061B   26168.46250569  .00003084  00000+0  17516-3 0  9990
2 63352  97.5644 143.9159 0016490 262.7680  97.1676 15.13572861 67636
LEMUR-2-KREMPEL-BRO2    
1 63353U 25061C   26168.81986184  .00003557  00000+0  19889-3 0  9999
2 63353  97.5690 144.8046 0017534 253.1570 106.7738 15.14010108 67701
LEMUR-2-THERMORAPTOR    
1 63354U 25061D   26168.60363191  .00003470  00000+0  19376-3 0  9999
2 63354  97.5697 144.6655 0017203 252.6757 107.2592 15.14089419 67678
LEMUR-2-NEUROSPICY      
1 63355U 25061E   26168.64135661  .00002924  00000+0  16347-3 0  9991
2 63355  97.5624 144.3288 0015033 256.4261 103.5296 15.14203989 67680
LEMUR-2-TILLINFINITY    
1 63356U 25061F   26168.47827191  .00003809  00000+0  20825-3 0  9998
2 63356  97.5607 144.4573 0016386 243.8467 116.1080 15.14789899 67680
LEMUR-2-KREMPEL-BRO1    
1 63357U 25061G   26168.45177913  .00002839  00000+0  15695-3 0  9998
2 63357  97.5610 144.3472 0016976 245.4775 114.4687 15.14594749 67678
LEMUR-2-LANGER2SPACE    
1 63358U 25061H   26168.47833857  .00003657  00000+0  20298-3 0  9991
2 63358  97.5614 144.1874 0014962 255.2164 104.7410 15.14291464 67664
LEMUR-2-BALTO           
1 63395U 25052BH  26168.65363743  .00004934  00000+0  40031-3 0  9990
2 63395  97.6897  62.2564 0006906  56.5220 303.6663 15.00091659 68838
LEMUR-2-KRISH           
1 64561U 25135AK  26167.87372187  .00004747  00000+0  42605-3 0  9994
2 64561  97.7754 282.7517 0001766  99.8626 260.2794 14.96207333 53876
LEMUR-2-HUBBLE-4        
1 64565U 25135AP  26168.06936850  .00001482  00000+0  14733-3 0  9997
2 64565  97.7699 281.9767 0000964 308.5326  51.5807 14.93197861 53857
LEMUR-2-SEJONG-2        
1 64586U 25135BL  26168.83976878  .00003306  00000+0  29459-3 0  9997
2 64586  97.7688 283.8559 0003786 336.0281  24.0763 14.96700381 54047
LEMUR-2-HUBBLE-5        
1 64840U 25135BT  26168.76017399  .00000898  00000+0  89282-4 0  9990
2 64840  97.7720 283.2940 0005046 351.9269   8.1869 14.94137180 53990
LEMUR-2-KARENDARRELL    
1 64841U 25135BU  26168.78521056  .00006451  00000+0  52138-3 0  9993
2 64841  97.7683 284.9918 0009722 199.7619 160.3229 15.00117904 54109
LEMUR-2-LUCILLE-ROSE    
1 65403U 25135BV  26168.29199290  .00004812  00000+0  38975-3 0  9997
2 65403  97.7770 284.5194 0011269 282.5666  77.4297 15.00154719 48656
LEMUR-2-AFFIE-WAUWIE    
1 66295U 25248C   26167.13988088  .00013448  00000+0  50637-3 0  9999
2 66295  45.3895 120.6606 0007520  77.2231 282.9498 15.27115158 34433
LEMUR-2-DEANANDMAEVE    
1 66678U 25276N   26168.77557700  .00005118  00000+0  24251-3 0  9997
2 66678  97.4209 242.2414 0005656  12.7375 347.4002 15.19739114 30501
LEMUR-2-STAS-GORBUK     
1 66686U 25276W   26168.79021788  .00004418  00000+0  21197-3 0  9998
2 66686  97.4244 242.3109 0005024  13.5720 346.5649 15.19387089 30500
LEMUR-2-TEODOR          
1 66768U 25276DG  26168.77334051  .00004536  00000+0  20733-3 0  9993
2 66768  97.4151 242.5312 0002149 116.3493 243.7963 15.21055353 30539
LEMUR-2-LAILA           
1 66776U 25276DQ  26168.74717145  .00005055  00000+0  22920-3 0  9995
2 66776  97.4173 242.6265 0002260 135.0689 225.0730 15.21277167 30533
LEMUR-2-CELIJO-SB-PK    
1 66781U 25276DW  26168.77037197  .00004928  00000+0  40074-3 0  9994
2 66781  97.5250 239.5293 0008730 131.4945 228.7030 14.99982019 22712
LEMUR-2-FINNIAN         
1 66782U 25276DX  26168.74719808  .00005610  00000+0  45074-3 0  9992
2 66782  97.5287 239.7207 0008876  87.8049 272.4191 15.00384360 20080
